*******************************************************************************
JPL/HORIZONS                1429 Pemba (1937 NH)           2023-Sep-04 11:12:06
Rec #:    1429 (+COV) Soln.date: 2023-Aug-22_01:58:50   # obs: 3455 (1937-2023)
 
IAU76/J2000 helio. ecliptic osc. elements (au, days, deg., period=Julian yrs):
 
  EPOCH=  2457523.5 ! 2016-May-15.00 (TDB)         Residual RMS= .27454
   EC= .3357641451687693   QR= 1.696171104564687   TP= 2457140.4554032222
   OM= 47.72571925095664   W=  297.7693004066314   IN= 7.748232938302923
   A= 2.553567520072597    MA= 92.51931227709002   ADIST= 3.410963935580506
   PER= 4.08065            N= .241536659           ANGMOM= .025892928
   DAN= 1.95919            DDN= 2.68585            L= 345.7122242
   B= -6.8513134           MOID= .706747           TP= 2015-Apr-27.9554032222
 
Asteroid physical parameters (km, seconds, rotational period in hours):
   GM= n.a.                RAD= 4.937              ROTPER= 20.
   H= 12.4                 G= .150                 B-V= n.a.
                           ALBEDO= .196            STYP= n.a.

ASTEROID comments: 
1: soln ref.= JPL#60, OCC=0
2: source=ORB
*******************************************************************************


*******************************************************************************
Ephemeris / API_USER Mon Sep  4 11:12:06 2023 Pasadena, USA      / Horizons
*******************************************************************************
Target body name: 1429 Pemba (1937 NH)            {source: JPL#60}
Center body name: Solar System Barycenter (0)     {source: DE441}
Center-site name: BODY CENTER
*******************************************************************************
Start time      : A.D. 2023-Aug-12 00:00:00.0000 TDB
Stop  time      : A.D. 2023-Aug-13 00:00:00.0000 TDB
Step-size       : 2880 minutes
*******************************************************************************
Center geodetic : 0.0, 0.0, 0.0                   {E-lon(deg),Lat(deg),Alt(km)}
Center cylindric: 0.0, 0.0, 0.0                   {E-lon(deg),Dxy(km),Dz(km)}
Center radii    : (undefined)
Small perturbers: Yes                             {source: SB441-N16}
Output units    : KM-S
Calendar mode   : Mixed Julian/Gregorian
Output type     : GEOMETRIC cartesian states
Output format   : 2 (position and velocity)
Reference frame : Ecliptic of J2000.0
*******************************************************************************
Initial IAU76/J2000 heliocentric ecliptic osculating elements (au, days, deg.):
  EPOCH=  2457523.5 ! 2016-May-15.00 (TDB)         Residual RMS= .27454        
   EC= .3357641451687693   QR= 1.696171104564687   TP= 2457140.4554032222      
   OM= 47.72571925095664   W=  297.7693004066314   IN= 7.748232938302923       
  Equivalent ICRF heliocentric cartesian coordinates (au, au/d):
   X=-1.115511219054257E+00  Y= 2.249482355742443E+00  Z= 1.357430038015488E+00
  VX=-9.484278370148497E-03 VY=-1.139032677615551E-03 VZ= 4.609376222812975E-04
Asteroid physical parameters (km, seconds, rotational period in hours):        
   GM= n.a.                RAD= 4.937              ROTPER= 20.                 
   H= 12.4                 G= .150                 B-V= n.a.                   
                           ALBEDO= .196            STYP= n.a.                  
*******************************************************************************
JDTDB
   X     Y     Z
   VX    VY    VZ
*******************************************************************************
$$SOE
2460168.500000000 = A.D. 2023-Aug-12 00:00:00.0000 TDB 
 X = 2.547280552698825E+08 Y = 3.308473994720507E+07 Z =-2.265826058745809E+07
 VX=-7.021437994511756E-01 VY= 2.588048550225320E+01 VZ= 2.444475068967591E+00
$$EOE
*******************************************************************************
 
TIME

  Barycentric Dynamical Time ("TDB" or T_eph) output was requested. This
continuous coordinate time is equivalent to the relativistic proper time
of a clock at rest in a reference frame co-moving with the solar system
barycenter but outside the system's gravity well. It is the independent
variable in the solar system relativistic equations of motion.

  TDB runs at a uniform rate of one SI second per second and is independent
of irregularities in Earth's rotation.
 
CALENDAR SYSTEM

  Mixed calendar mode was active such that calendar dates after AD 1582-Oct-15
(if any) are in the modern Gregorian system. Dates prior to 1582-Oct-5 (if any)
are in the Julian calendar system, which is automatically extended for dates
prior to its adoption on 45-Jan-1 BC.  The Julian calendar is useful for
matching historical dates. The Gregorian calendar more accurately corresponds
to the Earth's orbital motion and seasons. A "Gregorian-only" calendar mode is
available if such physical events are the primary interest.

REFERENCE FRAME AND COORDINATES

  Ecliptic at the standard reference epoch

    Reference epoch: J2000.0
    X-Y plane: adopted Earth orbital plane at the reference epoch
               Note: IAU76 obliquity of 84381.448 arcseconds wrt ICRF X-Y plane
    X-axis   : ICRF
    Z-axis   : perpendicular to the X-Y plane in the directional (+ or -) sense
               of Earth's north pole at the reference epoch.

  Symbol meaning:

    JDTDB    Julian Day Number, Barycentric Dynamical Time
      X      X-component of position vector (km)
      Y      Y-component of position vector (km)
      Z      Z-component of position vector (km)
      VX     X-component of velocity vector (km/sec)                           
      VY     Y-component of velocity vector (km/sec)                           
      VZ     Z-component of velocity vector (km/sec)                           

ABERRATIONS AND CORRECTIONS

 Geometric state vectors have NO corrections or aberrations applied.

Computations by ...

    Solar System Dynamics Group, Horizons On-Line Ephemeris System
    4800 Oak Grove Drive, Jet Propulsion Laboratory
    Pasadena, CA  91109   USA

    General site: https://ssd.jpl.nasa.gov/
    Mailing list: https://ssd.jpl.nasa.gov/email_list.html
    System news : https://ssd.jpl.nasa.gov/horizons/news.html
    User Guide  : https://ssd.jpl.nasa.gov/horizons/manual.html
    Connect     : browser        https://ssd.jpl.nasa.gov/horizons/app.html#/x
                  API            https://ssd-api.jpl.nasa.gov/doc/horizons.html
                  command-line   telnet ssd.jpl.nasa.gov 6775
                  e-mail/batch   https://ssd.jpl.nasa.gov/ftp/ssd/hrzn_batch.txt
                  scripts        https://ssd.jpl.nasa.gov/ftp/ssd/SCRIPTS
    Author      : Jon.D.Giorgini@jpl.nasa.gov
*******************************************************************************
